OBJECT_NAME,OBJECT_ID,EPOCH,MEAN_MOTION,ECCENTRICITY,INCLINATION,RA_OF_ASC_NODE,ARG_OF_PERICENTER,MEAN_ANOMALY,EPHEMERIS_TYPE,CLASSIFICATION_TYPE,NORAD_CAT_ID,ELEMENT_SET_NO,REV_AT_EPOCH,BSTAR,MEAN_MOTION_DOT,MEAN_MOTION_DDOT
CAPELLA-17 (ACADIA-7),2025-135BH,2026-07-11T19:48:35.399808,14.91599654,.00039646,97.7704,306.0834,264.8386,95.2380,0,U,64583,999,5752,.30871222E-3,.3043E-4,0
ICEYE-X53,2025-135BJ,2026-07-12T03:48:03.992256,15.00881487,.0001777,97.7365,309.8313,166.6573,193.4699,0,U,64584,999,5782,.12885E-4,.104E-5,0
IRIDE-MS2-HEO-9,2025-135BK,2026-07-12T05:51:29.600640,14.91927357,.0000233,97.7782,307.4451,183.4325,176.6892,0,U,64585,999,5763,.74766E-4,.701E-5,0
LEMUR-2-SEJONG-2,2025-135BL,2026-07-12T04:09:38.601216,14.96898090,.0003724,97.7703,308.0283,233.0679,127.0201,0,U,64586,999,5768,.1957E-3,.2187E-4,0
IRIDE-MS2-HEO-8,2025-135BM,2026-07-12T03:43:43.039200,14.91933320,.000021,97.7757,307.3100,200.3580,159.7630,0,U,64587,999,5762,.10662E-3,.1023E-4,0
BIFROST-DNK,2025-135BN,2026-07-12T04:15:34.513920,14.94754654,.0002963,97.7764,307.6349,259.0681,101.0206,0,U,64588,999,5764,.11395E-3,.1181E-4,0
SATORO-T3,2025-135BP,2026-07-12T03:19:03.610272,14.94430379,.0003594,97.7735,307.4140,238.5903,121.4966,0,U,64589,999,5763,.15547E-3,.1618E-4,0
TRANSPORTER-14 OBJECT BQ,2025-135BQ,2026-07-11T20:05:03.324192,14.94142968,.00040679,97.7739,307.0301,242.7662,117.3144,0,U,64590,999,5758,.61889267E-4,.605E-5,0
AE2A,2025-135BR,2026-07-12T03:36:44.312832,14.97349756,.0003814,97.7719,308.2233,234.1132,125.9735,0,U,64591,999,5769,.23584E-3,.268E-4,0
HUBBLE 7,2025-135BS,2026-07-11T11:21:09.880128,14.93759037,.00013901,97.7773,306.9063,253.6080,106.4987,0,U,64592,999,5753,.13089316E-3,.133E-4,0
STARLINK-34280,2025-137A,2026-07-12T04:00:01.998720,15.34371479,.0001472,53.1596,116.2936,81.2291,282.2265,0,U,64594,999,585,.10229E-2,.3431E-3,0
STARLINK-34517,2025-137B,2026-07-12T03:44:00.316608,15.34404377,.0001234,53.1578,116.2252,115.4466,244.6665,0,U,64595,999,5980,.20528E-3,.6566E-4,0
STARLINK-34510,2025-137C,2026-07-12T04:11:16.985760,15.34396711,.0000711,53.1581,116.3449,68.2836,291.8242,0,U,64596,999,5980,.55419E-3,.18392E-3,0
STARLINK-34486,2025-137D,2026-07-12T05:00:07.094016,15.30206738,.000119,53.1591,117.2575,89.4840,270.6298,0,U,64597,999,5979,.48115E-3,.13921E-3,0
STARLINK-34463,2025-137E,2026-07-12T03:47:02.371776,15.34394421,.0001344,53.1583,116.2311,93.2416,266.8740,0,U,64598,999,5980,.25813E-3,.8353E-4,0
STARLINK-34294,2025-137F,2026-07-11T23:20:47.098176,15.34414386,.0001031,53.1594,117.2168,107.4330,252.6785,0,U,64599,999,5977,.19809E-3,.6325E-4,0
STARLINK-34504,2025-137G,2026-07-12T04:57:05.039712,15.30186979,.0001508,53.1543,117.2508,81.6007,278.5164,0,U,64600,999,5979,.71079E-3,.20743E-3,0
STARLINK-34508,2025-137H,2026-07-11T18:27:25.598592,15.30219709,.00036181,53.1580,118.7816,96.0444,264.0969,0,U,64601,999,5973,.45517263E-3,.13154E-3,0
STARLINK-34435,2025-137J,2026-07-12T04:20:22.053984,15.34408892,.0001319,53.1588,116.3807,99.2363,260.8789,0,U,64602,999,5980,.75069E-3,.25079E-3,0
STARLINK-34475,2025-137K,2026-07-12T04:06:42.905088,15.33558911,.0000926,53.1585,116.3214,90.2443,269.8665,0,U,64603,999,5980,.6183E-3,.20023E-3,0
STARLINK-34488,2025-137L,2026-07-12T03:47:10.355136,15.30197091,.0001539,53.1589,116.9435,84.8734,275.2442,0,U,64604,999,5979,.29349E-3,.8342E-4,0
STARLINK-34516,2025-137M,2026-07-12T04:47:09.111264,15.31701971,.0002629,53.1567,115.7930,36.1961,323.9218,0,U,64605,999,5991,.54365E-3,.16544E-3,0
STARLINK-34073,2025-137N,2026-07-12T03:41:06.279360,15.30187006,.0001137,53.1560,116.9163,87.4090,272.7040,0,U,64606,999,5967,.37399E-3,.10729E-3,0
STARLINK-34532,2025-137P,2026-07-10T11:14:30.316416,15.34387017,.0001266,53.1570,134.1190,89.2138,270.9010,0,U,64607,999,5940,.48494E-3,.16037E-3,0
STARLINK-34519,2025-137Q,2026-07-12T04:17:20.001408,15.34408265,.0001012,53.1592,116.3685,96.7816,263.3302,0,U,64608,999,5980,.46666E-3,.15427E-3,0
STARLINK-34513,2025-137R,2026-07-11T22:47:36.316032,15.34400186,.0000473,53.1572,117.7796,114.8085,245.2966,0,U,64609,999,5985,.6705E-3,.22345E-3,0
STARLINK-34569,2025-137S,2026-07-11T00:00:02.000160,15.34405184,.00012464,53.1589,121.7862,88.2760,283.8832,0,U,64610,999,585,-.81287796E-3,-.27745E-3,0
STARLINK-34494,2025-137T,2026-07-10T11:11:22.633152,15.34395797,.0001722,53.1594,124.1637,75.9421,284.1773,0,U,64611,999,5954,.41644E-3,.13718E-3,0
STARLINK-34521,2025-137U,2026-07-11T23:12:34.790976,15.30228996,.0001282,53.1589,117.8806,100.3840,259.7305,0,U,64612,999,5976,.40805E-3,.11756E-3,0
STARLINK-34500,2025-137V,2026-07-12T03:53:05.688096,15.34400674,.0001365,53.1584,116.2592,102.6218,257.4937,0,U,64613,999,5990,.17334E-3,.5485E-4,0
STARLINK-34440,2025-137W,2026-07-11T23:48:04.775616,15.34424054,.0001207,53.1589,117.3309,104.9907,255.1229,0,U,64614,999,5977,.55991E-3,.18603E-3,0
STARLINK-34469,2025-137X,2026-07-12T03:34:59.207232,15.30236429,.0000495,53.1630,116.8812,136.5015,223.6025,0,U,64615,999,5979,-.25947E-4,-.1128E-4,0
STARLINK-34413,2025-137Y,2026-07-12T03:56:07.846080,15.34399019,.000119,53.1579,116.2737,87.6228,272.4911,0,U,64616,999,5990,.59609E-3,.19816E-3,0
STARLINK-34417,2025-137Z,2026-07-12T02:33:36.422784,15.34397932,.0001192,53.1576,102.9097,84.4618,275.6520,0,U,64617,999,6008,.47628E-3,.15749E-3,0
STARLINK-34415,2025-137AA,2026-07-12T04:08:15.171648,15.34393931,.0001712,53.1529,116.3344,224.7475,135.3389,0,U,64618,999,5980,.44503E-3,.14687E-3,0
STARLINK-34416,2025-137AB,2026-07-12T04:26:25.473120,15.34397278,.0001022,53.1591,116.4009,61.7195,298.3911,0,U,64619,999,5980,.37892E-3,.12446E-3,0
STARLINK-34414,2025-137AC,2026-07-11T23:42:01.288224,15.34361558,.0001752,53.1631,117.2964,89.7648,270.3555,0,U,64620,999,5977,-.10385E-3,-.3879E-4,0
HAWK-12C,2025-138A,2026-07-11T13:25:13.753344,15.18388166,.00155685,97.4348,194.5915,62.5737,297.7079,0,U,64621,999,5756,.13236063E-3,.2661E-4,0
HAWK-12B,2025-138B,2026-07-11T13:25:28.727328,15.18387603,.00144547,97.4473,195.2793,58.7627,301.5021,0,U,64622,999,5756,.13201974E-3,.2653E-4,0
HAWK-12A,2025-138C,2026-07-11T22:54:18.000000,15.18389614,.0015369,97.4406,195.3231,57.3615,302.9099,0,U,64623,999,5762,.11711E-3,.2346E-4,0
KESTREL-0A,2025-138D,2026-07-11T12:55:04.456992,15.23633019,.00141021,97.4411,196.4853,47.5926,312.6502,0,U,64624,999,5765,.23212853E-3,.5504E-4,0
STARLINK-34464,2025-139A,2026-07-12T04:09:51.558624,15.34397213,.0001028,53.1578,266.6713,83.0250,277.0869,0,U,64664,999,5937,.34061E-3,.11148E-3,0
STARLINK-34555,2025-139B,2026-07-12T04:06:49.737600,15.34409166,.0001038,53.1576,266.6568,89.0449,271.0673,0,U,64665,999,5927,.59721E-3,.19861E-3,0
STARLINK-34390,2025-139C,2026-07-10T16:54:50.466528,15.34408119,.00011236,53.1574,273.1447,64.1173,295.9945,0,U,64666,999,5921,.58142449E-3,.19324E-3,0
STARLINK-34382,2025-139D,2026-07-11T12:59:52.447200,15.34392408,.00015732,53.1592,271.2531,36.3964,323.7146,0,U,64667,999,5925,.55721118E-3,.18492E-3,0
STARLINK-34395,2025-139E,2026-07-12T04:18:56.841120,15.34394639,.0001706,53.1558,266.7106,39.8350,320.2777,0,U,64668,999,5937,.31353E-3,.1023E-3,0
STARLINK-34394,2025-139F,2026-07-12T05:34:33.692160,15.34407572,.0001654,53.1513,266.3194,110.9705,249.1474,0,U,64669,999,5938,.58551E-3,.19463E-3,0
STARLINK-34287,2025-139G,2026-07-12T05:25:28.479648,15.34397853,.0001217,53.1569,266.2853,105.2591,254.8546,0,U,64670,999,5938,.33034E-3,.108E-3,0
STARLINK-34365,2025-139H,2026-07-12T04:25:00.903072,15.34384540,.0001041,53.1580,266.7323,73.4482,286.6635,0,U,64671,999,5943,.38689E-3,.12711E-3,0
STARLINK-34442,2025-139J,2026-07-12T05:07:18.314688,15.34357933,.0001187,53.1564,266.2033,86.7593,273.3546,0,U,64672,999,5938,.64226E-3,.21357E-3,0
STARLINK-34288,2025-139K,2026-07-12T05:16:23.066688,15.34394743,.0000806,53.1576,266.2445,103.0765,257.0328,0,U,64673,999,5938,.45226E-3,.14932E-3,0
STARLINK-34539,2025-139L,2026-07-12T00:19:50.886624,15.34396728,.0001681,53.1579,267.0948,50.4199,309.6952,0,U,64674,999,5925,.76399E-3,.25522E-3,0
STARLINK-34590,2025-139M,2026-07-11T12:41:40.983648,15.34390429,.00004803,53.1588,271.1685,109.8684,250.2371,0,U,64675,999,5925,.30108289E-3,.9807E-4,0
STARLINK-34573,2025-139N,2026-07-11T11:37:21.599328,15.34391771,.00011798,53.1578,269.4717,101.4095,258.7040,0,U,64676,999,5927,.59028739E-3,.19615E-3,0
STARLINK-34605,2025-139P,2026-07-11T12:55:01.915968,15.30202740,.00010479,53.1584,261.2927,102.3592,257.7526,0,U,64677,999,5939,.38018627E-3,.10918E-3,0
STARLINK-34525,2025-139Q,2026-07-10T21:12:49.389408,15.34431149,.0002,53.1589,274.2534,50.4932,309.6247,0,U,64678,999,5915,.10713138E-2,.3603E-3,0
STARLINK-34489,2025-139R,2026-07-12T04:21:58.865184,15.34401427,.0001385,53.1585,266.7185,55.3155,304.7978,0,U,64679,999,5937,.4049E-3,.13329E-3,0
STARLINK-34502,2025-139S,2026-07-12T00:00:00.998784,15.34381566,.0001157,53.1584,267.1069,73.4099,233.8540,0,U,64680,999,587,.77676E-3,.25943E-3,0
STARLINK-34553,2025-139T,2026-07-11T11:34:19.954560,15.34373416,.00009842,53.1590,269.4617,103.8522,256.2590,0,U,64681,999,5927,.10309845E-2,.34588E-3,0
STARLINK-34551,2025-139U,2026-07-12T04:40:07.468896,15.30195747,.0001432,53.1583,258.2684,96.7018,263.4146,0,U,64682,999,5949,.24391E-3,.687E-4,0
STARLINK-34550,2025-139V,2026-07-11T16:52:04.100736,15.34408173,.00010518,53.1579,268.7033,74.7696,285.3423,0,U,64683,999,5930,.45559913E-3,.15052E-3,0
STARLINK-34485,2025-139W,2026-07-12T04:12:53.150688,15.34398451,.0001064,53.1575,266.6749,103.5771,256.5351,0,U,64684,999,5937,.35644E-3,.11685E-3,0
STARLINK-34253,2025-139X,2026-07-12T04:28:02.051040,15.34393299,.0001076,53.1589,266.7395,62.7163,297.3949,0,U,64685,999,5937,.44198E-3,.14583E-3,0
STARLINK-34565,2025-139Y,2026-07-12T05:37:35.275584,15.34395527,.0000701,53.1561,266.3298,74.2971,285.8109,0,U,64686,999,5938,.26881E-3,.8716E-4,0
STARLINK-34554,2025-139Z,2026-07-12T05:04:15.749760,15.34393478,.0001084,53.1539,266.1880,33.8642,326.2429,0,U,64687,999,5938,.4106E-3,.13519E-3,0
